{
  "type": "FeatureCollection",
  "features": [
    {
      "type": "Feature",
      "properties": {
        "norad_id": 34614,
        "name": "COSMOS 2251 DEB",
        "group": "cosmos-2251-debris",
        "lat": 73.68758460179804,
        "lon": 77.60751427454426,
        "alt_km": 840.2100509422107,
        "timestamp": "2025-12-05T18:53:13.676495+00:00",
        "meta_object_name": "COSMOS 2251 DEB",
        "meta_object_id": "1993-036WK",
        "meta_epoch": "2025-12-04T20:43:04.520064",
        "meta_mean_motion": 14.17169673,
        "meta_eccentricity": 0.0197875,
        "meta_inclination": 73.8788,
        "meta_ra_of_asc_node": 358.0566,
        "meta_arg_of_pericenter": 353.1012,
        "meta_mean_anomaly": 61.3249,
        "meta_ephemeris_type": 0,
        "meta_classification_type": "U",
        "meta_norad_cat_id": 34614,
        "meta_element_set_no": 999,
        "meta_rev_at_epoch": 84655,
        "meta_bstar": 0.0098527,
        "meta_mean_motion_dot": 0.00024126,
        "meta_mean_motion_ddot": 0,
        "tle_line1": "1 34614U 93036WK  25338.86324676  .00024126  00000+0  98527-2 0  9999",
        "tle_line2": "2 34614  73.8788 358.0566 0197875 353.1012  61.3249 14.17169673846554"
      },
      "geometry": {
        "type": "Point",
        "coordinates": [
          77.60751427454426,
          73.68758460179804
        ]
      }
    },
    {
      "type": "Feature",
      "properties": {
        "norad_id": 34615,
        "name": "COSMOS 2251 DEB",
        "group": "cosmos-2251-debris",
        "lat": 14.7799271592719,
        "lon": 120.95406491957995,
        "alt_km": 863.3536585598258,
        "timestamp": "2025-12-05T18:53:13.676505+00:00",
        "meta_object_name": "COSMOS 2251 DEB",
        "meta_object_id": "1993-036WL",
        "meta_epoch": "2025-12-04T16:18:53.961408",
        "meta_mean_motion": 13.52198359,
        "meta_eccentricity": 0.0402058,
        "meta_inclination": 74.0053,
        "meta_ra_of_asc_node": 307.0689,
        "meta_arg_of_pericenter": 215.9786,
        "meta_mean_anomaly": 324.3399,
        "meta_ephemeris_type": 0,
        "meta_classification_type": "U",
        "meta_norad_cat_id": 34615,
        "meta_element_set_no": 999,
        "meta_rev_at_epoch": 82706,
        "meta_bstar": 0.00019137,
        "meta_mean_motion_dot": 1.87e-06,
        "meta_mean_motion_ddot": 0,
        "tle_line1": "1 34615U 93036WL  25338.67979122  .00000187  00000+0  19137-3 0  9993",
        "tle_line2": "2 34615  74.0053 307.0689 0402058 215.9786 324.3399 13.52198359827062"
      },
      "geometry": {
        "type": "Point",
        "coordinates": [
          120.95406491957995,
          14.7799271592719
        ]
      }
    },
    {
      "type": "Feature",
      "properties": {
        "norad_id": 34619,
        "name": "COSMOS 2251 DEB",
        "group": "cosmos-2251-debris",
        "lat": 34.07346275171087,
        "lon": 22.142259513010487,
        "alt_km": 740.337300317764,
        "timestamp": "2025-12-05T18:53:13.676515+00:00",
        "meta_object_name": "COSMOS 2251 DEB",
        "meta_object_id": "1993-036WQ",
        "meta_epoch": "2025-12-04T09:26:21.170112",
        "meta_mean_motion": 14.64612654,
        "meta_eccentricity": 0.009457,
        "meta_inclination": 74.0441,
        "meta_ra_of_asc_node": 215.9771,
        "meta_arg_of_pericenter": 312.7679,
        "meta_mean_anomaly": 46.556,
        "meta_ephemeris_type": 0,
        "meta_classification_type": "U",
        "meta_norad_cat_id": 34619,
        "meta_element_set_no": 999,
        "meta_rev_at_epoch": 89176,
        "meta_bstar": 0.0004408,
        "meta_mean_motion_dot": 2.467e-05,
        "meta_mean_motion_ddot": 0,
        "tle_line1": "1 34619U 93036WQ  25338.39330058  .00002467  00000+0  44080-3 0  9993",
        "tle_line2": "2 34619  74.0441 215.9771 0094570 312.7679  46.5560 14.64612654891763"
      },
      "geometry": {
        "type": "Point",
        "coordinates": [
          22.142259513010487,
          34.07346275171087
        ]
      }
    },
    {
      "type": "Feature",
      "properties": {
        "norad_id": 34620,
        "name": "COSMOS 2251 DEB",
        "group": "cosmos-2251-debris",
        "lat": 50.62372607206685,
        "lon": -107.05292261509936,
        "alt_km": 770.3276041520821,
        "timestamp": "2025-12-05T18:53:13.676525+00:00",
        "meta_object_name": "COSMOS 2251 DEB",
        "meta_object_id": "1993-036WR",
        "meta_epoch": "2025-12-05T02:04:06.460896",
        "meta_mean_motion": 14.48898635,
        "meta_eccentricity": 0.00816293,
        "meta_inclination": 74.0517,
        "meta_ra_of_asc_node": 233.8682,
        "meta_arg_of_pericenter": 272.0353,
        "meta_mean_anomaly": 87.146,
        "meta_ephemeris_type": 0,
        "meta_classification_type": "U",
        "meta_norad_cat_id": 34620,
        "meta_element_set_no": 999,
        "meta_rev_at_epoch": 86716,
        "meta_bstar": 0.0051080083,
        "meta_mean_motion_dot": 0.00020196,
        "meta_mean_motion_ddot": 0,
        "tle_line1": "1 34620U 93036WR  25339.08618589  .00020196  00000+0  51080-2 0  9996",
        "tle_line2": "2 34620  74.0517 233.8682 0081629 272.0353  87.1460 14.48898635867161"
      },
      "geometry": {
        "type": "Point",
        "coordinates": [
          -107.05292261509936,
          50.62372607206685
        ]
      }
    },
    {
      "type": "Feature",
      "properties": {
        "norad_id": 34622,
        "name": "COSMOS 2251 DEB",
        "group": "cosmos-2251-debris",
        "lat": 4.272887709008542,
        "lon": -39.28784464871466,
        "alt_km": 762.2344990190832,
        "timestamp": "2025-12-05T18:53:13.676535+00:00",
        "meta_object_name": "COSMOS 2251 DEB",
        "meta_object_id": "1993-036WT",
        "meta_epoch": "2025-12-04T16:40:05.862720",
        "meta_mean_motion": 14.21990475,
        "meta_eccentricity": 0.01040326,
        "meta_inclination": 74.0414,
        "meta_ra_of_asc_node": 321.4463,
        "meta_arg_of_pericenter": 45.9184,
        "meta_mean_anomaly": 129.1495,
        "meta_ephemeris_type": 0,
        "meta_classification_type": "U",
        "meta_norad_cat_id": 34622,
        "meta_element_set_no": 999,
        "meta_rev_at_epoch": 86345,
        "meta_bstar": 0.0018976725,
        "meta_mean_motion_dot": 4.407e-05,
        "meta_mean_motion_ddot": 0,
        "tle_line1": "1 34622U 93036WT  25338.69451230  .00004407  00000+0  18977-2 0  9997",
        "tle_line2": "2 34622  74.0414 321.4463 0104032  45.9184 129.1495 14.21990475863452"
      },
      "geometry": {
        "type": "Point",
        "coordinates": [
          -39.28784464871466,
          4.272887709008542
        ]
      }
    },
    {
      "type": "Feature",
      "properties": {
        "norad_id": 34626,
        "name": "COSMOS 2251 DEB",
        "group": "cosmos-2251-debris",
        "lat": 15.95786100696167,
        "lon": -17.89690534632456,
        "alt_km": 643.13897164442,
        "timestamp": "2025-12-05T18:53:13.676545+00:00",
        "meta_object_name": "COSMOS 2251 DEB",
        "meta_object_id": "1993-036WX",
        "meta_epoch": "2025-12-05T02:48:48.674592",
        "meta_mean_motion": 14.7205533,
        "meta_eccentricity": 0.00262828,
        "meta_inclination": 74.0478,
        "meta_ra_of_asc_node": 338.7128,
        "meta_arg_of_pericenter": 69.1084,
        "meta_mean_anomaly": 0.1203,
        "meta_ephemeris_type": 0,
        "meta_classification_type": "U",
        "meta_norad_cat_id": 34626,
        "meta_element_set_no": 999,
        "meta_rev_at_epoch": 89032,
        "meta_bstar": 0.0019252524,
        "meta_mean_motion_dot": 0.00012157,
        "meta_mean_motion_ddot": 0,
        "tle_line1": "1 34626U 93036WX  25339.11723003  .00012157  00000+0  19253-2 0  9998",
        "tle_line2": "2 34626  74.0478 338.7128 0026282  69.1084   0.1203 14.72055330890321"
      },
      "geometry": {
        "type": "Point",
        "coordinates": [
          -17.89690534632456,
          15.95786100696167
        ]
      }
    },
    {
      "type": "Feature",
      "properties": {
        "norad_id": 34634,
        "name": "COSMOS 2251 DEB",
        "group": "cosmos-2251-debris",
        "lat": -52.968234868765066,
        "lon": -109.59173102850279,
        "alt_km": 707.5478586998343,
        "timestamp": "2025-12-05T18:53:13.676555+00:00",
        "meta_object_name": "COSMOS 2251 DEB",
        "meta_object_id": "1993-036XF",
        "meta_epoch": "2025-12-05T04:45:24.046272",
        "meta_mean_motion": 14.55622098,
        "meta_eccentricity": 0.00446091,
        "meta_inclination": 74.0531,
        "meta_ra_of_asc_node": 49.2502,
        "meta_arg_of_pericenter": 158.7845,
        "meta_mean_anomaly": 232.7445,
        "meta_ephemeris_type": 0,
        "meta_classification_type": "U",
        "meta_norad_cat_id": 34634,
        "meta_element_set_no": 999,
        "meta_rev_at_epoch": 88672,
        "meta_bstar": 0.00076602662,
        "meta_mean_motion_dot": 3.361e-05,
        "meta_mean_motion_ddot": 0,
        "tle_line1": "1 34634U 93036XF  25339.19819498  .00003361  00000+0  76603-3 0  9999",
        "tle_line2": "2 34634  74.0531  49.2502 0044609 158.7845 232.7445 14.55622098886725"
      },
      "geometry": {
        "type": "Point",
        "coordinates": [
          -109.59173102850279,
          -52.968234868765066
        ]
      }
    }
  ]
}